NORAD_CAT_ID,OBJECT_NAME,OBJECT_TYPE,EPOCH,MEAN_MOTION,ECCENTRICITY,INCLINATION,RA_OF_ASC_NODE,ARG_OF_PERICENTER,MEAN_ANOMALY,BSTAR,MEAN_MOTION_DOT,MEAN_MOTION_DDOT,TLE_LINE0,TLE_LINE1,TLE_LINE2,SEMIMAJOR_AXIS,PERIOD,APOGEE,PERIGEE,DECAYED
49175.0,STARLINK-3087,PAYLOAD,2023-08-30 16:42:10,14.98336956,0.0003087,69.999,79.1374,270.1658,89.9148,6.4791e-05,6.8e-06,0.0,0 STARLINK-3087,1 49175U 21082AX  23242.69595205  .00000680  00000-0  64791-4 0  9998,2 49175  69.9990  79.1374 0003087 270.1658  89.9148 14.98336956108369,6950.171,96.107,574.182,569.891,0.0
49175.0,STARLINK-3087,PAYLOAD,2023-08-30 19:54:26,14.98339273,0.0002917,69.9991,78.801,266.0832,93.9994,2.1184e-05,1.6e-06,0.0,0 STARLINK-3087,1 49175U 21082AX  23242.82947079  .00000160  00000-0  21184-4 0  9995,2 49175  69.9991  78.8010 0002917 266.0832  93.9994 14.98339273108383,6950.164,96.106,574.057,570.002,0.0
49175.0,STARLINK-3087,PAYLOAD,2023-08-31 18:20:19,14.98332006,0.0003145,69.999,76.4445,271.2089,88.871,0.00010992,1.219e-05,0.0,0 STARLINK-3087,1 49175U 21082AX  23243.76411238  .00001219  00000-0  10992-3 0  9992,2 49175  69.9990  76.4445 0003145 271.2089  88.8710 14.98332006108526,6950.187,96.107,574.238,569.866,0.0
49175.0,STARLINK-3087,PAYLOAD,2023-09-01 11:57:46,14.98348311,0.0002629,69.9999,74.5975,270.1612,89.9246,0.0002933,3.41e-05,0.0,0 STARLINK-3087,1 49175U 21082AX  23244.49845662  .00003410  00000-0  29330-3 0  9996,2 49175  69.9999  74.5975 0002629 270.1612  89.9246 14.98348311108632,6950.136,96.106,573.828,570.174,0.0
49175.0,STARLINK-3087,PAYLOAD,2023-09-01 16:46:11,14.98336255,0.0003028,69.9974,74.0896,269.631,90.4503,7.3741e-05,7.87e-06,0.0,0 STARLINK-3087,1 49175U 21082AX  23244.69874937  .00000787  00000-0  73741-4 0  9995,2 49175  69.9974  74.0896 0003028 269.6310  90.4503 14.98336255108664,6950.174,96.107,574.143,569.934,0.0
49175.0,STARLINK-3087,PAYLOAD,2023-09-02 13:35:58,14.98318414,0.0003014,69.9985,71.8994,271.3241,88.7573,-6.2767e-05,-8.42e-06,0.0,0 STARLINK-3087,1 49175U 21082AX  23245.56664612 -.00000842  00000-0 -62767-4 0  9999,2 49175  69.9985  71.8994 0003014 271.3241  88.7573 14.98318414108796,6950.229,96.108,574.189,569.999,0.0
49175.0,STARLINK-3087,PAYLOAD,2023-09-02 18:24:22,14.98315699,0.0003166,69.9983,71.3945,274.3874,85.6923,-8.8997e-05,-1.154e-05,0.0,0 STARLINK-3087,1 49175U 21082AX  23245.76692992 -.00001154  00000-0 -88997-4 0  9993,2 49175  69.9983  71.3945 0003166 274.3874  85.6923 14.98315699108829,6950.237,96.108,574.303,569.902,0.0
49175.0,STARLINK-3087,PAYLOAD,2023-09-03 12:01:51,14.9832161,0.0003043,69.9991,69.5425,271.6985,88.3825,2.0471e-05,1.51e-06,0.0,0 STARLINK-3087,1 49175U 21082AX  23246.50129019  .00000151  00000-0  20471-4 0  9998,2 49175  69.9991  69.5425 0003043 271.6985  88.3825 14.98321610108930,6950.219,96.108,574.199,569.969,0.0
49175.0,STARLINK-3087,PAYLOAD,2023-09-03 18:26:23,14.9832678,0.0003138,69.9993,68.8695,269.9095,90.1704,4.0405e-05,3.89e-06,0.0,0 STARLINK-3087,1 49175U 21082AX  23246.76832795  .00000389  00000-0  40405-4 0  9990,2 49175  69.9993  68.8695 0003138 269.9095  90.1704 14.98326780108974,6950.203,96.107,574.249,569.887,0.0
49175.0,STARLINK-3087,PAYLOAD,2023-09-04 12:03:52,14.98324213,0.0002861,70.001,67.0175,268.861,91.2221,0.00031141,3.624e-05,0.0,0 STARLINK-3087,1 49175U 21082AX  23247.50269447  .00003624  00000-0  31141-3 0  9992,2 49175  70.0010  67.0175 0002861 268.8610  91.2221 14.98324213109082,6950.211,96.107,574.064,570.087,0.0
49175.0,STARLINK-3087,PAYLOAD,2023-09-04 18:28:25,14.98326013,0.0002955,70.0006,66.3437,270.4012,89.6808,0.0003734,4.365e-05,0.0,0 STARLINK-3087,1 49175U 21082AX  23247.76973508  .00004365  00000-0  37340-3 0  9990,2 49175  70.0006  66.3437 0002955 270.4012  89.6808 14.98326013109126,6950.205,96.107,574.124,570.016,0.0
49175.0,STARLINK-3087,PAYLOAD,2023-09-05 12:05:53,14.98335704,0.0003152,70.0014,64.4916,272.2706,87.8092,0.00031185,3.63e-05,0.0,0 STARLINK-3087,1 49175U 21082AX  23248.50409016  .00003630  00000-0  31185-3 0  9996,2 49175  70.0014  64.4916 0003152 272.2706  87.8092 14.98335704109230,6950.175,96.107,574.231,569.85,0.0
49175.0,STARLINK-3087,PAYLOAD,2023-09-05 18:30:25,14.98338891,0.0003117,69.9997,63.8192,271.0278,89.0524,0.00027684,3.212e-05,0.0,0 STARLINK-3087,1 49175U 21082AX  23248.77112610  .00003212  00000-0  27684-3 0  9991,2 49175  69.9997  63.8192 0003117 271.0278  89.0524 14.98338891109276,6950.165,96.106,574.197,569.864,0.0
49175.0,STARLINK-3087,PAYLOAD,2023-09-06 18:32:25,14.98353815,0.0003173,70.0012,61.2941,272.9943,87.0853,0.00034117,3.983e-05,0.0,0 STARLINK-3087,1 49175U 21082AX  23249.77251178  .00003983  00000-0  34117-3 0  9999,2 49175  70.0012  61.2941 0003173 272.9943  87.0853 14.98353815109425,6950.119,96.105,574.19,569.779,0.0
49175.0,STARLINK-3087,PAYLOAD,2023-09-07 10:33:45,14.98346845,0.0002738,70.0013,59.6106,272.0382,88.0463,0.00010715,1.186e-05,0.0,0 STARLINK-3087,1 49175U 21082AX  23250.44010954  .00001186  00000-0  10715-3 0  9991,2 49175  70.0013  59.6106 0002738 272.0382  88.0463 14.98346845109528,6950.141,96.106,573.909,570.103,0.0
49175.0,STARLINK-3087,PAYLOAD,2023-09-08 04:11:13,14.98339935,0.0003012,70.0014,57.7593,272.124,87.9574,-4.0659e-05,-5.78e-06,0.0,0 STARLINK-3087,1 49175U 21082AX  23251.17446753 -.00000578  00000-0 -40659-4 0  9999,2 49175  70.0014  57.7593 0003012 272.1240  87.9574 14.98339935109633,6950.162,96.106,574.121,569.934,0.0
49175.0,STARLINK-3087,PAYLOAD,2023-09-08 13:48:02,14.98342808,0.0003208,70.0016,56.7504,268.0785,92.0007,-0.00016819,-2.1e-05,0.0,0 STARLINK-3087,1 49175U 21082AX  23251.57502344 -.00002100  00000-0 -16819-3 0  9995,2 49175  70.0016  56.7504 0003208 268.0785  92.0007 14.98342808109698,6950.153,96.106,574.248,569.789,0.0
49175.0,STARLINK-3087,PAYLOAD,2023-09-08 20:12:34,14.9835104,0.0003335,70.0006,56.0765,269.3987,90.679,-0.0001813,-2.257e-05,0.0,0 STARLINK-3087,1 49175U 21082AX  23251.84206274 -.00002257  00000-0 -18130-3 0  9999,2 49175  70.0006  56.0765 0003335 269.3987  90.6790 14.98351040109734,6950.128,96.106,574.311,569.675,0.0
49175.0,STARLINK-3087,PAYLOAD,2023-09-09 10:37:47,14.98332001,0.0002971,70.0007,54.5617,268.6559,91.4259,5.5534e-05,5.7e-06,0.0,0 STARLINK-3087,1 49175U 21082AX  23252.44290861  .00000570  00000-0  55534-4 0  9995,2 49175  70.0007  54.5617 0002971 268.6559  91.4259 14.98332001109821,6950.187,96.107,574.117,569.987,0.0
49175.0,STARLINK-3087,PAYLOAD,2023-09-09 13:50:03,14.98331865,0.0002948,70.0008,54.2253,267.1942,92.8879,9.6718e-05,1.061e-05,0.0,0 STARLINK-3087,1 49175U 21082AX  23252.57642819  .00001061  00000-0  96718-4 0  9998,2 49175  70.0008  54.2253 0002948 267.1942  92.8879 14.98331865109841,6950.187,96.107,574.101,570.003,0.0
49175.0,STARLINK-3087,PAYLOAD,2023-09-10 10:39:48,14.98333843,0.0002938,70.0011,52.0371,267.0919,92.9904,9.2634e-05,1.013e-05,0.0,0 STARLINK-3087,1 49175U 21082AX  23253.44430707  .00001013  00000-0  92634-4 0  9996,2 49175  70.0011  52.0371 0002938 267.0919  92.9904 14.98333843109976,6950.181,96.107,574.088,570.004,0.0
49175.0,STARLINK-3087,PAYLOAD,2023-09-10 13:52:04,14.98334069,0.0002973,70.001,51.7001,267.6035,92.4783,9.3497e-05,1.023e-05,0.0,0 STARLINK-3087,1 49175U 21082AX  23253.57782662  .00001023  00000-0  93497-4 0  9999,2 49175  70.0010  51.7001 0002973 267.6035  92.4783 14.98334069109998,6950.18,96.107,574.112,569.979,0.0
49175.0,STARLINK-3087,PAYLOAD,2023-09-10 18:40:29,14.98312592,0.0002868,70.0011,51.1953,269.4352,90.6478,0.00050392,5.922e-05,0.0,0 STARLINK-3087,1 49175U 21082AX  23253.77811441  .00005922  00000-0  50392-3 0  9997,2 49175  70.0011  51.1953 0002868 269.4352  90.6478 14.98312592110028,6950.247,96.108,574.105,570.118,0.0
49175.0,STARLINK-3087,PAYLOAD,2023-09-10 20:16:36,14.98333903,0.0002991,70.0011,51.027,268.34,91.7416,9.2902e-05,1.016e-05,0.0,0 STARLINK-3087,1 49175U 21082AX  23253.84486647  .00001016  00000-0  92902-4 0  9995,2 49175  70.0011  51.0270 0002991 268.3400  91.7416 14.98333903110032,6950.181,96.107,574.125,569.967,0.0
49175.0,STARLINK-3087,PAYLOAD,2023-09-11 13:54:05,14.98331127,0.0003005,70.001,49.1754,270.316,89.7654,0.0001285,1.441e-05,0.0,0 STARLINK-3087,1 49175U 21082AX  23254.57922752  .00001441  00000-0  12850-3 0  9993,2 49175  70.0010  49.1754 0003005 270.3160  89.7654 14.98331127110148,6950.189,96.107,574.143,569.966,0.0
49175.0,STARLINK-3087,PAYLOAD,2023-09-11 20:18:37,14.98334813,0.0003061,70.0009,48.5019,267.6241,92.4568,0.00012833,1.439e-05,0.0,0 STARLINK-3087,1 49175U 21082AX  23254.84626471  .00001439  00000-0  12833-3 0  9990,2 49175  70.0009  48.5019 0003061 267.6241  92.4568 14.98334813110188,6950.178,96.107,574.17,569.916,0.0
49175.0,STARLINK-3087,PAYLOAD,2023-09-12 10:43:50,14.98330807,0.0003107,70.0011,46.9871,270.3335,89.7468,4.6899e-05,4.67e-06,0.0,0 STARLINK-3087,1 49175U 21082AX  23255.44710902  .00000467  00000-0  46899-4 0  9990,2 49175  70.0011  46.9871 0003107 270.3335  89.7468 14.98330807110272,6950.19,96.107,574.215,569.896,0.0
49175.0,STARLINK-3087,PAYLOAD,2023-09-12 13:56:06,14.98330911,0.0003109,70.0011,46.6504,270.3761,89.7042,4.2697e-05,4.16e-06,0.0,0 STARLINK-3087,1 49175U 21082AX  23255.58062881  .00000416  00000-0  42697-4 0  9997,2 49175  70.0011  46.6504 0003109 270.3761  89.7042 14.98330911110293,6950.19,96.107,574.216,569.894,0.0
49175.0,STARLINK-3087,PAYLOAD,2023-09-12 20:20:38,14.98337103,0.0003079,70.0011,45.9771,270.4536,89.627,0.00010839,1.201e-05,0.0,0 STARLINK-3087,1 49175U 21082AX  23255.84766317  .00001201  00000-0  10839-3 0  9996,2 49175  70.0011  45.9771 0003079 270.4536  89.6270 14.98337103110335,6950.171,96.107,574.176,569.896,0.0
49175.0,STARLINK-3087,PAYLOAD,2023-09-13 13:58:06,14.98338447,0.0003026,70.0012,44.1252,271.4959,88.5853,0.00013333,1.499e-05,0.0,0 STARLINK-3087,1 49175U 21082AX  23256.58202006  .00001499  00000-0  13333-3 0  9999,2 49175  70.0012  44.1252 0003026 271.4959  88.5853 14.98338447110442,6950.167,96.106,574.135,569.929,0.0
